[{"OBJECT_NAME":"TRANSPORTER-15 OBJECT V","OBJECT_ID":"2025-276V","EPOCH":"2026-03-09T17:08:31.585344","MEAN_MOTION":15.2021049,"ECCENTRICITY":0.00044492,"INCLINATION":97.4286,"RA_OF_ASC_NODE":144.0632,"ARG_OF_PERICENTER":13.5049,"MEAN_ANOMALY":346.6304,"EPHEMERIS_TYPE":0,"CLASSIFICATION_TYPE":"U","NORAD_CAT_ID":66685,"ELEMENT_SET_NO":999,"REV_AT_EPOCH":1532,"BSTAR":0.00072831858,"MEAN_MOTION_DOT":0.0001574,"MEAN_MOTION_DDOT":0},{"OBJECT_NAME":"PIAST-M","OBJECT_ID":"2025-276CW","EPOCH":"2026-03-09T17:04:49.285920","MEAN_MOTION":15.19194203,"ECCENTRICITY":7.473e-5,"INCLINATION":97.4255,"RA_OF_ASC_NODE":144.0316,"ARG_OF_PERICENTER":58.1322,"MEAN_ANOMALY":301.9986,"EPHEMERIS_TYPE":0,"CLASSIFICATION_TYPE":"U","NORAD_CAT_ID":66758,"ELEMENT_SET_NO":999,"REV_AT_EPOCH":1532,"BSTAR":0.00030409287,"MEAN_MOTION_DOT":6.332e-5,"MEAN_MOTION_DDOT":0}]
